{"type": "FeatureCollection", "features": [ {"type": "Feature", "properties": {"norad_id": 42741, "name": "EUTELSAT 172B", "group": "eutelsat", "lat": 0.019233000130747916, "lon": 155.90181435757205, "alt_km": 35785.72441667208, "timestamp": "2025-12-26T16:33:55.255139+00:00", "meta": {"OBJECT_NAME": "EUTELSAT 172B", "OBJECT_ID": "2017-029B", "EPOCH": "2025-12-26T05:07:26.649696", "MEAN_MOTION": 1.00270973, "ECCENTRICITY": 1.341e-05, "INCLINATION": 0.0365, "RA_OF_ASC_NODE": 154.2111, "ARG_OF_PERICENTER": 0.1125, "MEAN_ANOMALY": 189.4975, "EPHEMERIS_TYPE": 0, "CLASSIFICATION_TYPE": "U", "NORAD_CAT_ID": 42741, "ELEMENT_SET_NO": 999, "REV_AT_EPOCH": 3199, "BSTAR": 0, "MEAN_MOTION_DOT": 1.6e-07, "MEAN_MOTION_DDOT": 0}, "tle": {"line1": "1 42741U 17029B   25360.21350289  .00000016  00000+0  00000+0 0  9998", "line2": "2 42741   0.0365 154.2111 0000134   0.1125 189.4975  1.00270973 31990"}}, "geometry": {"type": "Point", "coordinates": [155.90181435757205, 0.019233000130747916]}}, {"type": "Feature", "properties": {"norad_id": 44334, "name": "EUTELSAT 7C", "group": "eutelsat", "lat": 0.0004628687371699186, "lon": -9.088770210944585, "alt_km": 35786.89381258389, "timestamp": "2025-12-26T16:33:55.255150+00:00", "meta": {"OBJECT_NAME": "EUTELSAT 7C", "OBJECT_ID": "2019-034B", "EPOCH": "2025-12-24T14:50:38.546016", "MEAN_MOTION": 1.00270796, "ECCENTRICITY": 0.00031593, "INCLINATION": 0.0726, "RA_OF_ASC_NODE": 177.7928, "ARG_OF_PERICENTER": 79.9691, "MEAN_ANOMALY": 65.2631, "EPHEMERIS_TYPE": 0, "CLASSIFICATION_TYPE": "U", "NORAD_CAT_ID": 44334, "ELEMENT_SET_NO": 999, "REV_AT_EPOCH": 508, "BSTAR": 0, "MEAN_MOTION_DOT": 6.9e-07, "MEAN_MOTION_DDOT": 0}, "tle": {"line1": "1 44334U 19034B   25358.61850169  .00000069  00000+0  00000+0 0  9997", "line2": "2 44334   0.0726 177.7928 0003159  79.9691  65.2631  1.00270796  5083"}}, "geometry": {"type": "Point", "coordinates": [-9.088770210944585, 0.0004628687371699186]}}, {"type": "Feature", "properties": {"norad_id": 44624, "name": "EUTELSAT 5 WEST B", "group": "eutelsat", "lat": -0.015817242594702352, "lon": -21.06197350332517, "alt_km": 35780.5820517914, "timestamp": "2025-12-26T16:33:55.255161+00:00", "meta": {"OBJECT_NAME": "EUTELSAT 5 WEST B", "OBJECT_ID": "2019-067A", "EPOCH": "2025-12-25T22:47:38.488128", "MEAN_MOTION": 1.0027127, "ECCENTRICITY": 0.00031947, "INCLINATION": 0.0622, "RA_OF_ASC_NODE": 345.9649, "ARG_OF_PERICENTER": 287.5339, "MEAN_ANOMALY": 158.1146, "EPHEMERIS_TYPE": 0, "CLASSIFICATION_TYPE": "U", "NORAD_CAT_ID": 44624, "ELEMENT_SET_NO": 999, "REV_AT_EPOCH": 2270, "BSTAR": 0, "MEAN_MOTION_DOT": -2.1e-07, "MEAN_MOTION_DDOT": 0}, "tle": {"line1": "1 44624U 19067A   25359.94975102 -.00000021  00000+0  00000+0 0  9996", "line2": "2 44624   0.0622 345.9649 0003194 287.5339 158.1146  1.00271270 22703"}}, "geometry": {"type": "Point", "coordinates": [-21.06197350332517, -0.015817242594702352]}}, {"type": "Feature", "properties": {"norad_id": 45027, "name": "EUTELSAT KONNECT", "group": "eutelsat", "lat": -0.07528191004977344, "lon": -8.906613225844703, "alt_km": 35783.23471266669, "timestamp": "2025-12-26T16:33:55.255172+00:00", "meta": {"OBJECT_NAME": "EUTELSAT KONNECT", "OBJECT_ID": "2020-005B", "EPOCH": "2025-12-24T23:24:19.351008", "MEAN_MOTION": 1.00267204, "ECCENTRICITY": 0.0001571, "INCLINATION": 0.069, "RA_OF_ASC_NODE": 93.7711, "ARG_OF_PERICENTER": 204.5991, "MEAN_ANOMALY": 153.6522, "EPHEMERIS_TYPE": 0, "CLASSIFICATION_TYPE": "U", "NORAD_CAT_ID": 45027, "ELEMENT_SET_NO": 999, "REV_AT_EPOCH": 2259, "BSTAR": 0, "MEAN_MOTION_DOT": 7e-07, "MEAN_MOTION_DDOT": 0}, "tle": {"line1": "1 45027U 20005B   25358.97522397  .00000070  00000+0  00000+0 0  9997", "line2": "2 45027   0.0690  93.7711 0001571 204.5991 153.6522  1.00267204 22591"}}, "geometry": {"type": "Point", "coordinates": [-8.906613225844703, -0.07528191004977344]}}, {"type": "Feature", "properties": {"norad_id": 49056, "name": "EUTELSAT QUANTUM", "group": "eutelsat", "lat": 0.006764363590156048, "lon": 31.642875117569684, "alt_km": 35790.86671897282, "timestamp": "2025-12-26T16:33:55.255182+00:00", "meta": {"OBJECT_NAME": "EUTELSAT QUANTUM", "OBJECT_ID": "2021-069B", "EPOCH": "2025-12-26T04:01:38.790048", "MEAN_MOTION": 1.00271273, "ECCENTRICITY": 0.00035941, "INCLINATION": 0.0134, "RA_OF_ASC_NODE": 25.5084, "ARG_OF_PERICENTER": 258.1659, "MEAN_ANOMALY": 279.3536, "EPHEMERIS_TYPE": 0, "CLASSIFICATION_TYPE": "U", "NORAD_CAT_ID": 49056, "ELEMENT_SET_NO": 999, "REV_AT_EPOCH": 1619, "BSTAR": 0, "MEAN_MOTION_DOT": 1.48e-06, "MEAN_MOTION_DDOT": 0}, "tle": {"line1": "1 49056U 21069B   25360.16781007  .00000148  00000+0  00000+0 0  9999", "line2": "2 49056   0.0134  25.5084 0003594 258.1659 279.3536  1.00271273 16190"}}, "geometry": {"type": "Point", "coordinates": [31.642875117569684, 0.006764363590156048]}}, {"type": "Feature", "properties": {"norad_id": 53765, "name": "EUTELSAT KONNECT VHTS", "group": "eutelsat", "lat": -0.06454718676069525, "lon": -13.373239545540057, "alt_km": 35788.555113621405, "timestamp": "2025-12-26T16:33:55.255193+00:00", "meta": {"OBJECT_NAME": "EUTELSAT KONNECT VHTS", "OBJECT_ID": "2022-110A", "EPOCH": "2025-12-25T13:04:49.589760", "MEAN_MOTION": 1.00267512, "ECCENTRICITY": 0.0002526, "INCLINATION": 0.0614, "RA_OF_ASC_NODE": 98.0209, "ARG_OF_PERICENTER": 151.222, "MEAN_ANOMALY": 43.9766, "EPHEMERIS_TYPE": 0, "CLASSIFICATION_TYPE": "U", "NORAD_CAT_ID": 53765, "ELEMENT_SET_NO": 999, "REV_AT_EPOCH": 508, "BSTAR": 0, "MEAN_MOTION_DOT": 3.8e-07, "MEAN_MOTION_DDOT": 0}, "tle": {"line1": "1 53765U 22110A   25359.54501840  .00000038  00000+0  00000+0 0  9992", "line2": "2 53765   0.0614  98.0209 0002526 151.2220  43.9766  1.00267512  5087"}}, "geometry": {"type": "Point", "coordinates": [-13.373239545540057, -0.06454718676069525]}}, {"type": "Feature", "properties": {"norad_id": 54048, "name": "EUTELSAT HOTBIRD 13F", "group": "eutelsat", "lat": 0.04075590289770176, "lon": -3.106866585406189, "alt_km": 35776.934600538065, "timestamp": "2025-12-26T16:33:55.255204+00:00", "meta": {"OBJECT_NAME": "EUTELSAT HOTBIRD 13F", "OBJECT_ID": "2022-134A", "EPOCH": "2025-12-24T23:25:56.697024", "MEAN_MOTION": 1.00270775, "ECCENTRICITY": 0.0002211, "INCLINATION": 0.0545, "RA_OF_ASC_NODE": 289.4002, "ARG_OF_PERICENTER": 71.817, "MEAN_ANOMALY": 97.0057, "EPHEMERIS_TYPE": 0, "CLASSIFICATION_TYPE": "U", "NORAD_CAT_ID": 54048, "ELEMENT_SET_NO": 999, "REV_AT_EPOCH": 1163, "BSTAR": 0, "MEAN_MOTION_DOT": 1.08e-06, "MEAN_MOTION_DDOT": 0}, "tle": {"line1": "1 54048U 22134A   25358.97635066  .00000108  00000+0  00000+0 0  9995", "line2": "2 54048   0.0545 289.4002 0002211  71.8170  97.0057  1.00270775 11630"}}, "geometry": {"type": "Point", "coordinates": [-3.106866585406189, 0.04075590289770176]}}, {"type": "Feature", "properties": {"norad_id": 54225, "name": "EUTELSAT HOTBIRD 13G", "group": "eutelsat", "lat": 0.0331035551730216, "lon": -3.123814031315034, "alt_km": 35793.835233196034, "timestamp": "2025-12-26T16:33:55.255215+00:00", "meta": {"OBJECT_NAME": "EUTELSAT HOTBIRD 13G", "OBJECT_ID": "2022-146A", "EPOCH": "2025-12-24T00:28:38.654112", "MEAN_MOTION": 1.00268836, "ECCENTRICITY": 0.00017131, "INCLINATION": 0.0535, "RA_OF_ASC_NODE": 227.8066, "ARG_OF_PERICENTER": 307.349, "MEAN_ANOMALY": 297.8001, "EPHEMERIS_TYPE": 0, "CLASSIFICATION_TYPE": "U", "NORAD_CAT_ID": 54225, "ELEMENT_SET_NO": 999, "REV_AT_EPOCH": 571, "BSTAR": 0, "MEAN_MOTION_DOT": 1.08e-06, "MEAN_MOTION_DDOT": 0}, "tle": {"line1": "1 54225U 22146A   25358.01989183  .00000108  00000+0  00000+0 0  9992", "line2": "2 54225   0.0535 227.8066 0001713 307.3490 297.8001  1.00268836  5716"}}, "geometry": {"type": "Point", "coordinates": [-3.123814031315034, 0.0331035551730216]}}, {"type": "Feature", "properties": {"norad_id": 54259, "name": "EUTELSAT 10B", "group": "eutelsat", "lat": -0.06484291476347583, "lon": -6.080134047717873, "alt_km": 35789.12145837175, "timestamp": "2025-12-26T16:33:55.255226+00:00", "meta": {"OBJECT_NAME": "EUTELSAT 10B", "OBJECT_ID": "2022-157A", "EPOCH": "2025-12-25T22:01:38.544672", "MEAN_MOTION": 1.00270219, "ECCENTRICITY": 6.649e-05, "INCLINATION": 0.0617, "RA_OF_ASC_NODE": 95.4372, "ARG_OF_PERICENTER": 60.6723, "MEAN_ANOMALY": 278.9927, "EPHEMERIS_TYPE": 0, "CLASSIFICATION_TYPE": "U", "NORAD_CAT_ID": 54259, "ELEMENT_SET_NO": 999, "REV_AT_EPOCH": 1128, "BSTAR": 0, "MEAN_MOTION_DOT": 9e-07, "MEAN_MOTION_DDOT": 0}, "tle": {"line1": "1 54259U 22157A   25359.91780723  .00000090  00000+0  00000+0 0  9990", "line2": "2 54259   0.0617  95.4372 0000664  60.6723 278.9927  1.00270219 11289"}}, "geometry": {"type": "Point", "coordinates": [-6.080134047717873, -0.06484291476347583]}}, {"type": "Feature", "properties": {"norad_id": 59346, "name": "EUTELSAT 36D", "group": "eutelsat", "lat": -0.00486848444303893, "lon": 19.764206506565017, "alt_km": 35786.93126246653, "timestamp": "2025-12-26T16:33:55.255236+00:00", "meta": {"OBJECT_NAME": "EUTELSAT 36D", "OBJECT_ID": "2024-059A", "EPOCH": "2025-12-26T02:56:01.083264", "MEAN_MOTION": 1.00263096, "ECCENTRICITY": 4.929e-05, "INCLINATION": 0.0182, "RA_OF_ASC_NODE": 36.9532, "ARG_OF_PERICENTER": 25.8871, "MEAN_ANOMALY": 111.9168, "EPHEMERIS_TYPE": 0, "CLASSIFICATION_TYPE": "U", "NORAD_CAT_ID": 59346, "ELEMENT_SET_NO": 999, "REV_AT_EPOCH": 641, "BSTAR": 0, "MEAN_MOTION_DOT": 1.77e-06, "MEAN_MOTION_DDOT": 0}, "tle": {"line1": "1 59346U 24059A   25360.12223476  .00000177  00000+0  00000+0 0  9993", "line2": "2 59346   0.0182  36.9532 0000492  25.8871 111.9168  1.00263096  6419"}}, "geometry": {"type": "Point", "coordinates": [19.764206506565017, -0.00486848444303893]}}]}